[{"OBJECT_NAME":"IRIDIUM 33 DEB","OBJECT_ID":"1997-051JH","EPOCH":"2023-09-15T14:46:00.420960","MEAN_MOTION":14.57376315,"ECCENTRICITY":0.0026843,"INCLINATION":86.322,"RA_OF_ASC_NODE":315.5041,"ARG_OF_PERICENTER":99.9277,"MEAN_ANOMALY":51.158,"EPHEMERIS_TYPE":0,"CLASSIFICATION_TYPE":"U","NORAD_CAT_ID":34540,"ELEMENT_SET_NO":999,"REV_AT_EPOCH":77025,"BSTAR":0.00081934,"MEAN_MOTION_DOT":3.752e-5,"MEAN_MOTION_DDOT":0},{"OBJECT_NAME":"IRIDIUM 33 DEB","OBJECT_ID":"1997-051JU","EPOCH":"2023-09-15T06:52:16.852224","MEAN_MOTION":14.75522911,"ECCENTRICITY":0.0025236,"INCLINATION":86.3765,"RA_OF_ASC_NODE":7.4662,"ARG_OF_PERICENTER":67.9457,"MEAN_ANOMALY":292.4438,"EPHEMERIS_TYPE":0,"CLASSIFICATION_TYPE":"U","NORAD_CAT_ID":34643,"ELEMENT_SET_NO":999,"REV_AT_EPOCH":76566,"BSTAR":0.0056161,"MEAN_MOTION_DOT":0.00038622,"MEAN_MOTION_DDOT":0},{"OBJECT_NAME":"IRIDIUM 33 DEB","OBJECT_ID":"1997-051JZ","EPOCH":"2023-09-14T23:32:53.993472","MEAN_MOTION":13.93592478,"ECCENTRICITY":0.0211547,"INCLINATION":86.4043,"RA_OF_ASC_NODE":246.6939,"ARG_OF_PERICENTER":319.9497,"MEAN_ANOMALY":38.6237,"EPHEMERIS_TYPE":0,"CLASSIFICATION_TYPE":"U","NORAD_CAT_ID":34648,"ELEMENT_SET_NO":999,"REV_AT_EPOCH":73473,"BSTAR":0.0057099,"MEAN_MOTION_DOT":9.034e-5,"MEAN_MOTION_DDOT":0},{"OBJECT_NAME":"IRIDIUM 33 DEB","OBJECT_ID":"1997-051KC","EPOCH":"2023-09-15T14:11:17.758464","MEAN_MOTION":14.08802012,"ECCENTRICITY":0.0178311,"INCLINATION":86.2866,"RA_OF_ASC_NODE":124.1664,"ARG_OF_PERICENTER":283.0338,"MEAN_ANOMALY":75.099,"EPHEMERIS_TYPE":0,"CLASSIFICATION_TYPE":"U","NORAD_CAT_ID":34651,"ELEMENT_SET_NO":999,"REV_AT_EPOCH":74292,"BSTAR":0.002223,"MEAN_MOTION_DOT":4.455e-5,"MEAN_MOTION_DDOT":0},{"OBJECT_NAME":"IRIDIUM 33 DEB","OBJECT_ID":"1997-051KD","EPOCH":"2023-09-15T06:00:59.018976","MEAN_MOTION":14.50738889,"ECCENTRICITY":0.0035529,"INCLINATION":86.3402,"RA_OF_ASC_NODE":341.194,"ARG_OF_PERICENTER":178.294,"MEAN_ANOMALY":236.8024,"EPHEMERIS_TYPE":0,"CLASSIFICATION_TYPE":"U","NORAD_CAT_ID":34652,"ELEMENT_SET_NO":999,"REV_AT_EPOCH":76630,"BSTAR":0.0012071,"MEAN_MOTION_DOT":4.805e-5,"MEAN_MOTION_DDOT":0},{"OBJECT_NAME":"IRIDIUM 33 DEB","OBJECT_ID":"1997-051KM","EPOCH":"2023-09-15T09:33:05.820192","MEAN_MOTION":14.46212553,"ECCENTRICITY":0.0008595,"INCLINATION":86.3875,"RA_OF_ASC_NODE":30.4907,"ARG_OF_PERICENTER":227.344,"MEAN_ANOMALY":187.1402,"EPHEMERIS_TYPE":0,"CLASSIFICATION_TYPE":"U","NORAD_CAT_ID":34690,"ELEMENT_SET_NO":999,"REV_AT_EPOCH":76212,"BSTAR":0.0017553,"MEAN_MOTION_DOT":6.301e-5,"MEAN_MOTION_DDOT":0},{"OBJECT_NAME":"IRIDIUM 33 DEB","OBJECT_ID":"1997-051KQ","EPOCH":"2023-09-15T05:36:50.013216","MEAN_MOTION":14.63779358,"ECCENTRICITY":0.0022774,"INCLINATION":86.3365,"RA_OF_ASC_NODE":323.0038,"ARG_OF_PERICENTER":46.2087,"MEAN_ANOMALY":16.2202,"EPHEMERIS_TYPE":0,"CLASSIFICATION_TYPE":"U","NORAD_CAT_ID":34693,"ELEMENT_SET_NO":999,"REV_AT_EPOCH":76748,"BSTAR":0.0019066,"MEAN_MOTION_DOT":0.00010004,"MEAN_MOTION_DDOT":0},{"OBJECT_NAME":"IRIDIUM 33 DEB","OBJECT_ID":"1997-051KT","EPOCH":"2023-09-15T08:45:57.039264","MEAN_MOTION":14.24459451,"ECCENTRICITY":0.0124317,"INCLINATION":86.2069,"RA_OF_ASC_NODE":33.6538,"ARG_OF_PERICENTER":350.0209,"MEAN_ANOMALY":39.4171,"EPHEMERIS_TYPE":0,"CLASSIFICATION_TYPE":"U","NORAD_CAT_ID":34696,"ELEMENT_SET_NO":999,"REV_AT_EPOCH":74865,"BSTAR":0.0030309,"MEAN_MOTION_DOT":7.625e-5,"MEAN_MOTION_DDOT":0},{"OBJECT_NAME":"IRIDIUM 33 DEB","OBJECT_ID":"1997-051KZ","EPOCH":"2023-09-15T11:53:38.099904","MEAN_MOTION":14.71565846,"ECCENTRICITY":0.0032686,"INCLINATION":86.2995,"RA_OF_ASC_NODE":282.0849,"ARG_OF_PERICENTER":251.3556,"MEAN_ANOMALY":108.4111,"EPHEMERIS_TYPE":0,"CLASSIFICATION_TYPE":"U","NORAD_CAT_ID":34702,"ELEMENT_SET_NO":999,"REV_AT_EPOCH":77329,"BSTAR":0.0014909,"MEAN_MOTION_DOT":9.367e-5,"MEAN_MOTION_DDOT":0},{"OBJECT_NAME":"IRIDIUM 33 DEB","OBJECT_ID":"1997-051LJ","EPOCH":"2023-09-15T08:04:59.814624","MEAN_MOTION":14.36379437,"ECCENTRICITY":0.0018235,"INCLINATION":86.3441,"RA_OF_ASC_NODE":23.0483,"ARG_OF_PERICENTER":35.7866,"MEAN_ANOMALY":22.5205,"EPHEMERIS_TYPE":0,"CLASSIFICATION_TYPE":"U","NORAD_CAT_ID":34765,"ELEMENT_SET_NO":999,"REV_AT_EPOCH":75834,"BSTAR":0.00067565,"MEAN_MOTION_DOT":2.0e-5,"MEAN_MOTION_DDOT":0},{"OBJECT_NAME":"IRIDIUM 33 DEB","OBJECT_ID":"1997-051LS","EPOCH":"2023-09-15T13:14:08.894976","MEAN_MOTION":14.71210887,"ECCENTRICITY":0.0011296,"INCLINATION":86.4075,"RA_OF_ASC_NODE":23.295,"ARG_OF_PERICENTER":338.3283,"MEAN_ANOMALY":21.7453,"EPHEMERIS_TYPE":0,"CLASSIFICATION_TYPE":"U","NORAD_CAT_ID":34773,"ELEMENT_SET_NO":999,"REV_AT_EPOCH":76915,"BSTAR":0.0038388,"MEAN_MOTION_DOT":0.0002376,"MEAN_MOTION_DDOT":0},{"OBJECT_NAME":"IRIDIUM 33 DEB","OBJECT_ID":"1997-051LT","EPOCH":"2023-09-15T07:40:00.129216","MEAN_MOTION":14.81241234,"ECCENTRICITY":0.0017007,"INCLINATION":86.4046,"RA_OF_ASC_NODE":15.4058,"ARG_OF_PERICENTER":229.0618,"MEAN_ANOMALY":187.5309,"EPHEMERIS_TYPE":0,"CLASSIFICATION_TYPE":"U","NORAD_CAT_ID":34774,"ELEMENT_SET_NO":999,"REV_AT_EPOCH":77209,"BSTAR":0.0071417,"MEAN_MOTION_DOT":0.00056176,"MEAN_MOTION_DDOT":0},{"OBJECT_NAME":"IRIDIUM 33 DEB","OBJECT_ID":"1997-051LU","EPOCH":"2023-09-15T07:59:52.812096","MEAN_MOTION":14.53700886,"ECCENTRICITY":0.002863,"INCLINATION":86.3794,"RA_OF_ASC_NODE":30.9226,"ARG_OF_PERICENTER":227.1531,"MEAN_ANOMALY":162.5575,"EPHEMERIS_TYPE":0,"CLASSIFICATION_TYPE":"U","NORAD_CAT_ID":34775,"ELEMENT_SET_NO":999,"REV_AT_EPOCH":76257,"BSTAR":0.003488,"MEAN_MOTION_DOT":0.00014722,"MEAN_MOTION_DDOT":0},{"OBJECT_NAME":"IRIDIUM 33 DEB","OBJECT_ID":"1997-051LZ","EPOCH":"2023-09-15T10:59:18.672000","MEAN_MOTION":14.74287641,"ECCENTRICITY":0.0008631,"INCLINATION":86.3691,"RA_OF_ASC_NODE":357.0963,"ARG_OF_PERICENTER":354.1757,"MEAN_ANOMALY":138.8081,"EPHEMERIS_TYPE":0,"CLASSIFICATION_TYPE":"U","NORAD_CAT_ID":34825,"ELEMENT_SET_NO":999,"REV_AT_EPOCH":76576,"BSTAR":0.0038458,"MEAN_MOTION_DOT":0.00025544,"MEAN_MOTION_DDOT":0},{"OBJECT_NAME":"IRIDIUM 33 DEB","OBJECT_ID":"1997-051MH","EPOCH":"2023-09-15T10:23:17.456352","MEAN_MOTION":14.43501347,"ECCENTRICITY":0.0020335,"INCLINATION":86.3976,"RA_OF_ASC_NODE":41.2941,"ARG_OF_PERICENTER":309.4294,"MEAN_ANOMALY":111.7788,"EPHEMERIS_TYPE":0,"CLASSIFICATION_TYPE":"U","NORAD_CAT_ID":34833,"ELEMENT_SET_NO":999,"REV_AT_EPOCH":75859,"BSTAR":0.0011646,"MEAN_MOTION_DOT":3.967e-5,"MEAN_MOTION_DDOT":0},{"OBJECT_NAME":"IRIDIUM 33 DEB","OBJECT_ID":"1997-051MN","EPOCH":"2023-09-15T01:13:35.132448","MEAN_MOTION":15.16462255,"ECCENTRICITY":0.0041924,"INCLINATION":86.5049,"RA_OF_ASC_NODE":113.8018,"ARG_OF_PERICENTER":119.3705,"MEAN_ANOMALY":241.1733,"EPHEMERIS_TYPE":0,"CLASSIFICATION_TYPE":"U","NORAD_CAT_ID":34868,"ELEMENT_SET_NO":999,"REV_AT_EPOCH":76111,"BSTAR":0.014402,"MEAN_MOTION_DOT":0.00297293,"MEAN_MOTION_DDOT":0},{"OBJECT_NAME":"IRIDIUM 33 DEB","OBJECT_ID":"1997-051MP","EPOCH":"2023-09-15T13:51:34.643520","MEAN_MOTION":14.67330568,"ECCENTRICITY":0.0056243,"INCLINATION":86.4454,"RA_OF_ASC_NODE":99.67,"ARG_OF_PERICENTER":52.7236,"MEAN_ANOMALY":307.9087,"EPHEMERIS_TYPE":0,"CLASSIFICATION_TYPE":"U","NORAD_CAT_ID":34869,"ELEMENT_SET_NO":999,"REV_AT_EPOCH":75537,"BSTAR":0.0024858,"MEAN_MOTION_DOT":0.00014406,"MEAN_MOTION_DDOT":0},{"OBJECT_NAME":"IRIDIUM 33 DEB","OBJECT_ID":"1997-051MQ","EPOCH":"2023-09-15T11:50:35.082240","MEAN_MOTION":14.56153505,"ECCENTRICITY":0.0029635,"INCLINATION":86.3205,"RA_OF_ASC_NODE":322.3812,"ARG_OF_PERICENTER":122.1384,"MEAN_ANOMALY":303.7088,"EPHEMERIS_TYPE":0,"CLASSIFICATION_TYPE":"U","NORAD_CAT_ID":34870,"ELEMENT_SET_NO":999,"REV_AT_EPOCH":77030,"BSTAR":0.0011629,"MEAN_MOTION_DOT":5.184e-5,"MEAN_MOTION_DDOT":0},{"OBJECT_NAME":"IRIDIUM 33 DEB","OBJECT_ID":"1997-051MS","EPOCH":"2023-09-15T15:56:17.158272","MEAN_MOTION":15.22412133,"ECCENTRICITY":0.0032486,"INCLINATION":86.2708,"RA_OF_ASC_NODE":347.4635,"ARG_OF_PERICENTER":245.105,"MEAN_ANOMALY":114.6817,"EPHEMERIS_TYPE":0,"CLASSIFICATION_TYPE":"U","NORAD_CAT_ID":34890,"ELEMENT_SET_NO":999,"REV_AT_EPOCH":76147,"BSTAR":0.016214,"MEAN_MOTION_DOT":0.0039959,"MEAN_MOTION_DDOT":0},{"OBJECT_NAME":"IRIDIUM 33 DEB","OBJECT_ID":"1997-051MY","EPOCH":"2023-09-15T11:36:17.055072","MEAN_MOTION":14.53904186,"ECCENTRICITY":0.0036194,"INCLINATION":86.3367,"RA_OF_ASC_NODE":330.0442,"ARG_OF_PERICENTER":121.6593,"MEAN_ANOMALY":297.7548,"EPHEMERIS_TYPE":0,"CLASSIFICATION_TYPE":"U","NORAD_CAT_ID":34896,"ELEMENT_SET_NO":999,"REV_AT_EPOCH":75666,"BSTAR":0.00091968,"MEAN_MOTION_DOT":3.922e-5,"MEAN_MOTION_DDOT":0},{"OBJECT_NAME":"IRIDIUM 33 DEB","OBJECT_ID":"1997-051NA","EPOCH":"2023-09-15T08:04:53.183424","MEAN_MOTION":14.89537473,"ECCENTRICITY":0.0016084,"INCLINATION":86.3219,"RA_OF_ASC_NODE":280.9694,"ARG_OF_PERICENTER":142.0394,"MEAN_ANOMALY":218.1969,"EPHEMERIS_TYPE":0,"CLASSIFICATION_TYPE":"U","NORAD_CAT_ID":34898,"ELEMENT_SET_NO":999,"REV_AT_EPOCH":76988,"BSTAR":0.0036008,"MEAN_MOTION_DOT":0.00034551,"MEAN_MOTION_DDOT":0},{"OBJECT_NAME":"IRIDIUM 33 DEB","OBJECT_ID":"1997-051NF","EPOCH":"2023-09-15T07:06:43.256736","MEAN_MOTION":14.20393729,"ECCENTRICITY":0.0159577,"INCLINATION":86.1467,"RA_OF_ASC_NODE":16.0417,"ARG_OF_PERICENTER":84.056,"MEAN_ANOMALY":307.5195,"EPHEMERIS_TYPE":0,"CLASSIFICATION_TYPE":"U","NORAD_CAT_ID":34926,"ELEMENT_SET_NO":999,"REV_AT_EPOCH":74752,"BSTAR":0.0061748,"MEAN_MOTION_DOT":0.00015076,"MEAN_MOTION_DDOT":0},{"OBJECT_NAME":"IRIDIUM 33 DEB","OBJECT_ID":"1997-051NH","EPOCH":"2023-09-15T16:40:43.497696","MEAN_MOTION":14.68170227,"ECCENTRICITY":0.0026509,"INCLINATION":86.4051,"RA_OF_ASC_NODE":348.9204,"ARG_OF_PERICENTER":336.5185,"MEAN_ANOMALY":23.4817,"EPHEMERIS_TYPE":0,"CLASSIFICATION_TYPE":"U","NORAD_CAT_ID":34928,"ELEMENT_SET_NO":999,"REV_AT_EPOCH":76722,"BSTAR":0.0015793,"MEAN_MOTION_DOT":9.158e-5,"MEAN_MOTION_DDOT":0}]
